IXPE                    
1 49954U 21121A   24144.83335648  .00010887  00000+0  82880-3 0  9995
2 49954   0.2295 214.4325 0009707 276.3162 177.2908 14.97954115  5782
